[{"name":"STARLINK-4362","l1":"1 53043U 22077A   26183.75041946 -.00002122  00000+0 -14318-3 0  9997","l2":"2 53043  97.2854   1.8918 0001714  68.7575 291.3835 15.05662802218221","cat":"starlink"},{"name":"STARLINK-4410","l1":"1 53204U 22084R   26183.75002315  .00005856  00000+0  15400-3 0  9999","l2":"2 53204  97.6001 245.3050 0001598  83.4906  28.5089 15.38993491  5864","cat":"starlink"},{"name":"STARLINK-4400","l1":"1 53468U 22099D   26183.59675241 -.00002171  00000+0 -14659-3 0  9997","l2":"2 53468  97.2854 301.8289 0001711 122.3730 237.7664 15.05648960213265","cat":"starlink"},{"name":"STARLINK-4621","l1":"1 53676U 22105AE  26183.20076642 -.00000758  00000+0 -48633-4 0  9993","l2":"2 53676  97.2877  61.4686 0002156  92.7628 267.3847 15.05654978210468","cat":"starlink"},{"name":"MERIDIAN 10","l1":"1 52145U 22030A   26182.42556045  .00000167  00000+0  00000+0 0  9996","l2":"2 52145  62.6790 139.2518 6787824 272.8490  17.6305  2.00611817 31318","cat":"other"},{"name":"OMNI-L1","l1":"1 52157U 22033A   26183.22744427  .00002610  00000+0  32902-3 0  9999","l2":"2 52157  97.8393 262.1128 0004275 222.5064 137.5819 14.82805288229689","cat":"other"},{"name":"ENMAP","l1":"1 52159U 22033C   26183.76841625  .00000226  00000+0  41170-4 0  9997","l2":"2 52159  97.9798 265.7973 0001460  75.2842 284.8529 14.74931856228953","cat":"other"},{"name":"ARCSAT-1","l1":"1 52161U 22033E   26183.71061834  .00012557  00000+0  19563-3 0  9991","l2":"2 52161  97.2756 276.2179 0006090 131.3040 228.8739 15.53993722238114","cat":"other"},{"name":"GLOBAL-18","l1":"1 52196U 22034B   26183.69979139  .00016562  00000+0  33280-3 0  9995","l2":"2 52196  52.9794 182.4695 0003925 347.3380  12.7527 15.46797914239363","cat":"other"},{"name":"GAOFEN-3 03","l1":"1 52200U 22035A   26183.77034601 -.00000059  00000+0 -47575-5 0  9997","l2":"2 52200  98.4057 192.1245 0001627  97.0200 263.1174 14.42216548223099","cat":"other"},{"name":"DAQI-1","l1":"1 52257U 22039A   26183.79592139  .00000160  00000+0  44992-4 0  9990","l2":"2 52257  98.1490 122.3256 0003026 184.8079 175.3091 14.57686152224215","cat":"other"},{"name":"BRO-6","l1":"1 52422U 22047AE  26183.75028066  .00042216  00000+0  70907-3 0  9994","l2":"2 52422  97.3401 275.1149 0003632  17.2681 342.8694 15.51659609233561","cat":"other"},{"name":"JILIN-1 GAOFEN 3D27","l1":"1 52444U 22048B   26183.76286735  .00152812  00000+0  83736-3 0  9997","l2":"2 52444  97.5729 299.1564 0003420 277.4769  82.6109 15.79372856231934","cat":"science"},{"name":"JILIN-1 GAOFEN 3D28","l1":"1 52445U 22048C   26183.72838913  .00193047  00000+0  88032-3 0  9994","l2":"2 52445  97.5660 299.3402 0002861 259.8841 100.2105 15.83277043231980","cat":"science"},{"name":"VIGORIDE-3","l1":"1 52760U 22057AE  26183.54709205  .00006394  00000+0  24071-3 0  9996","l2":"2 52760  97.6630 323.9308 0009640  74.0943 286.1357 15.27439442227506","cat":"other"},{"name":"ION SCV-006","l1":"1 52761U 22057AF  26183.38076397  .00013942  00000+0  28928-3 0  9990","l2":"2 52761  97.6122 332.7355 0017858  62.2291 298.0766 15.45657678228463","cat":"other"},{"name":"SHERPA-AC1","l1":"1 52763U 22057AH  26183.69826051  .00008111  00000+0  23008-3 0  9992","l2":"2 52763  97.6707 333.5740 0008278  45.8851 314.3072 15.36480818228086","cat":"other"},{"name":"OMNI-L2","l1":"1 52771U 22057AR  26183.65807216  .00001642  00000+0  21596-3 0  9991","l2":"2 52771  97.4708 244.9766 0005086 273.0484  87.0147 14.81412006222688","cat":"other"},{"name":"STEP CUBE LAB-II","l1":"1 52897U 22065D   26183.72624262  .00000981  00000+0  19936-3 0  9995","l2":"2 52897  98.2248 327.5809 0008188 345.4959  14.6006 14.63327737213774","cat":"other"},{"name":"RANDEV","l1":"1 52898U 22065E   26183.65484741  .00000792  00000+0  16128-3 0  9994","l2":"2 52898  98.2231 327.8681 0007571 346.7925  13.3078 14.63714903213512","cat":"other"},{"name":"SNUGLITE-II","l1":"1 52899U 22065F   26183.67857015  .00001114  00000+0  21990-3 0  9997","l2":"2 52899  98.2222 328.4831 0006944 345.1162  14.9835 14.64376413213267","cat":"other"},{"name":"MIMAN","l1":"1 52900U 22065G   26183.65420882  .00000664  00000+0  14242-3 0  9997","l2":"2 52900  98.2282 326.0602 0007159 347.6079  12.4945 14.61860861212704","cat":"other"},{"name":"LARES-2","l1":"1 53105U 22080A   26177.40365794 -.00000028  00000+0  00000+0 0  9996","l2":"2 53105  70.1592 302.1681 0005264 334.1364  25.8897  6.38965133 92253","cat":"other"},{"name":"GREENCUBE (IO-117)","l1":"1 53109U 22080E   26181.72466670 -.00000003  00000+0  00000+0 0  9998","l2":"2 53109  70.1437 293.5372 0008958 286.6703  73.2973  6.42583253 92937","cat":"other"},{"name":"COSMOS 2558","l1":"1 53323U 22089A   26183.75848572  .00128848  00000+0  73246-3 0  9998","l2":"2 53323  97.2251 288.4942 0002750 244.7410 115.3572 15.78623056220288","cat":"other"},{"name":"TECMS","l1":"1 53346U 22090A   26183.74616508  .00004442  00000+0  20032-3 0  9994","l2":"2 53346  97.3130 251.4159 0004842 131.5538 228.6114 15.21514192217170","cat":"other"},{"name":"DONGPO 02","l1":"1 53452U 22098J   26183.79514581  .00133767  00000+0  77849-3 0  9994","l2":"2 53452  97.5549 316.3777 0003912 240.5944 119.4932 15.78075773217253","cat":"other"},{"name":"DONGPO 01","l1":"1 53453U 22098K   26183.74555338  .00113017  00000+0  73900-3 0  9995","l2":"2 53453  97.5614 316.8061 0002551 223.7238 136.3824 15.75484930217204","cat":"other"},{"name":"SHERPA-LTC2","l1":"1 53754U 22107BG  26183.62246766  .00003943  00000+0  20875-3 0  9998","l2":"2 53754  53.2357 154.9837 0392823 269.4011  86.1952 14.69834201204812","cat":"other"},{"name":"CENTISPACE-1 S3","l1":"1 53757U 22108A   26183.73433941  .00000546  00000+0  14795-3 0  9997","l2":"2 53757  53.5341 350.9700 0010297  35.3411 324.8245 14.61271779203806","cat":"navigation"}]