OBJECT_NAME,OBJECT_ID,EPOCH,MEAN_MOTION,ECCENTRICITY,INCLINATION,RA_OF_ASC_NODE,ARG_OF_PERICENTER,MEAN_ANOMALY,EPHEMERIS_TYPE,CLASSIFICATION_TYPE,NORAD_CAT_ID,ELEMENT_SET_NO,REV_AT_EPOCH,BSTAR,MEAN_MOTION_DOT,MEAN_MOTION_DDOT
MERIDIAN 10,2022-030A,2026-07-01T10:12:48.422880,2.00611817,.67878242,62.6790,139.2518,272.8490,17.6305,0,U,52145,999,3131,0,.167E-5,0
OMNI-L1,2022-033A,2026-07-02T05:27:31.184928,14.82805288,.0004275,97.8393,262.1128,222.5064,137.5819,0,U,52157,999,22968,.32902E-3,.261E-4,0
ENMAP,2022-033C,2026-07-02T18:26:31.164000,14.74931856,.000146,97.9798,265.7973,75.2842,284.8529,0,U,52159,999,22895,.4117E-4,.226E-5,0
ARCSAT-1,2022-033E,2026-07-02T17:03:17.424576,15.53993722,.000609,97.2756,276.2179,131.3040,228.8739,0,U,52161,999,23811,.19563E-3,.12557E-3,0
GLOBAL-18,2022-034B,2026-07-02T16:47:41.976096,15.46797914,.0003925,52.9794,182.4695,347.3380,12.7527,0,U,52196,999,23936,.3328E-3,.16562E-3,0
GAOFEN-3 03,2022-035A,2026-07-02T18:29:17.895264,14.42216548,.0001627,98.4057,192.1245,97.0200,263.1174,0,U,52200,999,22309,-.47575E-5,-.59E-6,0
DAQI-1,2022-039A,2026-07-02T19:06:07.608096,14.57686152,.0003026,98.1490,122.3256,184.8079,175.3091,0,U,52257,999,22421,.44992E-4,.16E-5,0
BRO-6,2022-047AE,2026-07-02T18:00:24.249024,15.51659609,.0003632,97.3401,275.1149,17.2681,342.8694,0,U,52422,999,23356,.70907E-3,.42216E-3,0
JILIN-1 GAOFEN 3D27,2022-048B,2026-07-02T18:18:31.739040,15.79372856,.000342,97.5729,299.1564,277.4769,82.6109,0,U,52444,999,23193,.83736E-3,.152812E-2,0
JILIN-1 GAOFEN 3D28,2022-048C,2026-07-02T17:28:52.820832,15.83277043,.0002861,97.5660,299.3402,259.8841,100.2105,0,U,52445,999,23198,.88032E-3,.193047E-2,0
VIGORIDE-3,2022-057AE,2026-07-02T13:07:48.753120,15.27439442,.000964,97.6630,323.9308,74.0943,286.1357,0,U,52760,999,22750,.24071E-3,.6394E-4,0
ION SCV-006,2022-057AF,2026-07-02T09:08:18.007008,15.45657678,.0017858,97.6122,332.7355,62.2291,298.0766,0,U,52761,999,22846,.28928E-3,.13942E-3,0
SHERPA-AC1,2022-057AH,2026-07-02T16:45:29.708064,15.36480818,.0008278,97.6707,333.5740,45.8851,314.3072,0,U,52763,999,22808,.23008E-3,.8111E-4,0
OMNI-L2,2022-057AR,2026-07-02T15:47:37.434624,14.81412006,.0005086,97.4708,244.9766,273.0484,87.0147,0,U,52771,999,22268,.21596E-3,.1642E-4,0
STEP CUBE LAB-II,2022-065D,2026-07-02T17:25:47.362368,14.63327737,.0008188,98.2248,327.5809,345.4959,14.6006,0,U,52897,999,21377,.19936E-3,.981E-5,0
RANDEV,2022-065E,2026-07-02T15:42:58.816224,14.63714903,.0007571,98.2231,327.8681,346.7925,13.3078,0,U,52898,999,21351,.16128E-3,.792E-5,0
SNUGLITE-II,2022-065F,2026-07-02T16:17:08.460960,14.64376413,.0006944,98.2222,328.4831,345.1162,14.9835,0,U,52899,999,21326,.2199E-3,.1114E-4,0
MIMAN,2022-065G,2026-07-02T15:42:03.642048,14.61860861,.0007159,98.2282,326.0602,347.6079,12.4945,0,U,52900,999,21270,.14242E-3,.664E-5,0
STARLINK-4362,2022-077A,2026-07-02T18:00:36.241344,15.05662802,.0001714,97.2854,1.8918,68.7575,291.3835,0,U,53043,999,21822,-.14318E-3,-.2122E-4,0
LARES-2,2022-080A,2026-06-26T09:41:16.046016,6.38965133,.0005264,70.1592,302.1681,334.1364,25.8897,0,U,53105,999,9225,0,-.28E-6,0
GREENCUBE (IO-117),2022-080E,2026-06-30T17:23:31.202880,6.42583253,.00089588,70.1437,293.5372,286.6703,73.2973,0,U,53109,999,9293,0,-.3E-7,0
STARLINK-4410,2022-084R,2026-07-02T18:00:02.000160,15.38993491,.0001598,97.6001,245.3050,83.4906,28.5089,0,U,53204,999,586,.154E-3,.5856E-4,0
COSMOS 2558,2022-089A,2026-07-02T18:12:13.166208,15.78623056,.000275,97.2251,288.4942,244.7410,115.3572,0,U,53323,999,22028,.73246E-3,.128848E-2,0
TECMS,2022-090A,2026-07-02T17:54:28.662912,15.21514192,.0004842,97.3130,251.4159,131.5538,228.6114,0,U,53346,999,21717,.20032E-3,.4442E-4,0
DONGPO 02,2022-098J,2026-07-02T19:05:00.597984,15.78075773,.0003912,97.5549,316.3777,240.5944,119.4932,0,U,53452,999,21725,.77849E-3,.133767E-2,0
DONGPO 01,2022-098K,2026-07-02T17:53:35.812032,15.75484930,.0002551,97.5614,316.8061,223.7238,136.3824,0,U,53453,999,21720,.739E-3,.113017E-2,0
STARLINK-4400,2022-099D,2026-07-02T14:19:19.408224,15.05648960,.0001711,97.2854,301.8289,122.3730,237.7664,0,U,53468,999,21326,-.14659E-3,-.2171E-4,0
STARLINK-4621,2022-105AE,2026-07-02T04:49:06.218688,15.05654978,.00021561,97.2877,61.4686,92.7628,267.3847,0,U,53676,999,21046,-.48632929E-4,-.758E-5,0
SHERPA-LTC2,2022-107BG,2026-07-02T14:56:21.205824,14.69834201,.0392823,53.2357,154.9837,269.4011,86.1952,0,U,53754,999,20481,.20875E-3,.3943E-4,0
CENTISPACE-1 S3,2022-108A,2026-07-02T17:37:26.925024,14.61271779,.0010297,53.5341,350.9700,35.3411,324.8245,0,U,53757,999,20380,.14795E-3,.546E-5,0
